GPS BIIA-23 (PRN 18)    
1 22877U 93068A   19150.88397266 -.00000060  00000-0  00000+0 0  9993
2 22877  54.6735  69.2627 0151747  79.6636  96.6026  2.00560759187528
GPS BIIR-2  (PRN 13)    
1 24876U 97035A   19151.03378713  .00000080  00000-0  00000+0 0  9997
2 24876  55.4597 199.1383 0033032  72.7698 287.6796  2.00564654160125
GPS BIIR-3  (PRN 11)    
1 25933U 99055A   19151.36904271 -.00000078  00000-0  00000+0 0  9994
2 25933  52.1143  46.5603 0164488 108.5615  60.2362  2.00559458143949
GPS BIIR-4  (PRN 20)    
1 26360U 00025A   19150.81611994  .00000051  00000-0  00000+0 0  9994
2 26360  53.3320 125.1625 0042643 137.7770  38.5785  2.00561227139620
GPS BIIR-5  (PRN 28)    
1 26407U 00040A   19151.36577073 -.00000047  00000-0  00000+0 0  9999
2 26407  56.2712 317.2495 0192301 275.9456 270.6523  2.00560567138311
GPS BIIR-6  (PRN 14)    
1 26605U 00071A   19151.34630284  .00000085  00000-0  00000+0 0  9996
2 26605  55.0342 196.5803 0108767 249.3856 195.1186  2.00559752135913
GPS BIIR-8  (PRN 16)    
1 27663U 03005A   19151.46384130 -.00000047  00000-0  00000+0 0  9999
2 27663  56.3315 317.0188 0106783  32.1309 346.3321  2.00574838119684
GPS BIIR-9  (PRN 21)    
1 27704U 03010A   19151.38747907 -.00000060  00000-0  00000+0 0  9992
2 27704  54.3490  68.7169 0248420 277.4732   9.4790  2.00556947118485
GPS BIIR-10 (PRN 22)    
1 28129U 03058A   19151.22656269  .00000054  00000-0  00000+0 0  9991
2 28129  53.1439 127.9333 0074497 282.8210  76.3340  2.00549126113176
GPS BIIR-11 (PRN 19)    
1 28190U 04009A   19150.65272711 -.00000070  00000-0  00000+0 0  9997
2 28190  56.2647  17.8282 0093829  80.7095 225.4706  2.00568526111340
GPS BIIR-12 (PRN 23)    
1 28361U 04023A   19151.45045727  .00000091  00000-0  00000+0 0  9999
2 28361  54.0490 190.9610 0134322 231.4157 204.8076  2.00574439109447
GPS BIIR-13 (PRN 02)    
1 28474U 04045A   19151.18297706 -.00000060  00000-0  00000+0 0  9991
2 28474  54.7067  68.4704 0191350 260.5626 343.0734  2.00558502106807
GPS BIIRM-1 (PRN 17)    
1 28874U 05038A   19150.10121530 -.00000071  00000-0  00000+0 0  9992
2 28874  56.3884  15.2001 0130550 262.1295  25.6112  2.00555574100185
GPS BIIRM-2 (PRN 31)    
1 29486U 06042A   19151.43872874 -.00000014  00000-0  00000+0 0  9996
2 29486  55.0051 253.7120 0091935 358.9019  97.8904  2.00569755 92927
GPS BIIRM-3 (PRN 12)    
1 29601U 06052A   19150.25489453 -.00000047  00000-0  00000+0 0  9998
2 29601  56.3123 315.9827 0074330  61.4250 299.3185  2.00568177 91812
GPS BIIRM-4 (PRN 15)    
1 32260U 07047A   19150.56629767  .00000088  00000-0  00000+0 0  9990
2 32260  53.1724 186.7020 0111629  43.6136 317.3457  2.00560721 85190
GPS BIIRM-5 (PRN 29)    
1 32384U 07062A   19151.13139049 -.00000066  00000-0  00000+0 0  9994
2 32384  56.4724  15.7985 0008713  99.8017  83.9167  2.00555541 83943
GPS BIIRM-6 (PRN 07)    
1 32711U 08012A   19150.97123935 -.00000018  00000-0  00000+0 0  9999
2 32711  54.7450 252.9248 0129220 219.6739 139.3980  2.00554675 82126
GPS BIIRM-8 (PRN 05)    
1 35752U 09043A   19150.78454841  .00000064  00000-0  00000+0 0  9994
2 35752  54.4259 130.6040 0055105  38.8907 211.3142  2.00560701 71708
GPS BIIF-1  (PRN 25)    
1 36585U 10022A   19150.33042796 -.00000048  00000-0  00000+0 0  9994
2 36585  55.5920 312.2926 0082603  50.5214 334.2230  2.00559872 65945
GPS BIIF-2  (PRN 01)    
1 37753U 11036A   19151.42343863 -.00000054  00000-0  00000+0 0  9995
2 37753  55.9044  72.4034 0087286  39.5350 141.8698  2.00566281 57650
GPS BIIF-3  (PRN 24)    
1 38833U 12053A   19150.66109787 -.00000017  00000-0  00000+0 0  9994
2 38833  53.7800 249.1557 0081803  33.4361 327.1046  2.00558359 48690
GPS BIIF-4  (PRN 27)    
1 39166U 13023A   19151.01896655 -.00000065  00000-0  00000+0 0  9992
2 39166  56.0710  11.9446 0070123  26.6577 333.7571  2.00567702 44249
GPS BIIF-5  (PRN 30)    
1 39533U 14008A   19151.01220522 -.00000020  00000-0  00000+0 0  9999
2 39533  53.9115 254.5343 0041128 193.5361 166.3739  2.00573582 38603
GPS BIIF-6  (PRN 06)    
1 39741U 14026A   19150.79982942 -.00000056  00000-0  00000+0 0  9994
2 39741  55.8837  71.9537 0017403 294.7659  65.0473  2.00573595 36887
GPS BIIF-7  (PRN 09)    
1 40105U 14045A   19150.39318479  .00000084  00000-0  00000+0 0  9995
2 40105  54.5754 191.2985 0009906 103.1673 257.0266  2.00563980 35326
GPS BIIF-8  (PRN 03)    
1 40294U 14068A   19151.25641030  .00000067  00000-0  00000+0 0  9998
2 40294  55.1780 132.1260 0020748  28.4699 331.6356  2.00551125 33566
GPS BIIF-9  (PRN 26)    
1 40534U 15013A   19150.89970788 -.00000051  00000-0  00000+0 0  9994
2 40534  54.5197 310.6297 0036999   6.4249 353.6119  2.00570740 30622
GPS BIIF-10  (PRN 08)   
1 40730U 15033A   19151.05988744 -.00000066  00000-0  00000+0 0  9990
2 40730  55.5959  11.2908 0044650 344.2887  15.6278  2.00555572 28381
GPS BIIF-11  (PRN 10)   
1 41019U 15062A   19151.10768422  .00000067  00000-0  00000+0 0  9998
2 41019  55.1793 131.9469 0046767 208.2815 151.4574  2.00564692 26207
GPS BIIF-12  (PRN 32)   
1 41328U 16007A   19151.20285174  .00000090  00000-0  00000+0 0  9996
2 41328  54.8193 191.6511 0032343 220.2208 139.6255  2.00572981 24264
